STARLINK-36049          
1 66805U 25278Q   26170.54823589  .00011147  00000+0  41390-3 0  9992
2 66805  42.9972 259.4183 0002085 286.1112  73.9510 15.27585565 30780
STARLINK-36069          
1 66806U 25278R   26171.00002315 -.00019615  00000+0 -70496-3 0  9990
2 66806  43.0002 256.9190 0001475 269.3926  36.8631 15.27588170  5762
STARLINK-36000          
1 66807U 25278S   26171.23535731  .00013607  00000+0  50271-3 0  9991
2 66807  42.9914 255.1101 0004264 133.1190 227.0019 15.27598679 30897
STARLINK-36071          
1 66808U 25278T   26170.69042438  .00012776  00000+0  47279-3 0  9998
2 66808  43.0009 257.9020 0001547 274.4632  85.6043 15.27594112 30811
STARLINK-35979          
1 66809U 25278U   26171.27263500  .00022433  00000+0  82144-3 0  9990
2 66809  43.0006 255.3929 0001512 282.5051  77.5631 15.27612450 30893
STARLINK-36046          
1 66810U 25278V   26171.25720635  .00016970  00000+0  62451-3 0  9995
2 66810  42.9997 255.2770 0001490 276.4143  83.6539 15.27594978 30893
STARLINK-36045          
1 66811U 25278W   26171.24949603  .00012484  00000+0  46235-3 0  9991
2 66811  42.9994 255.2168 0001546 238.0385 122.0316 15.27583358 30897
STARLINK-36054          
1 66812U 25278X   26171.24692698  .00013356  00000+0  49398-3 0  9993
2 66812  43.0007 255.2001 0002412 283.3320  76.7263 15.27580354 30895
STARLINK-36042          
1 66813U 25278Y   26171.28661711  .00013088  00000+0  48416-3 0  9992
2 66813  43.0020 254.6367 0001556 268.7729  91.2945 15.27588393 30909
STARLINK-35984          
1 66814U 25278Z   26171.28918247  .00016499  00000+0  60745-3 0  9990
2 66814  42.9984 254.6513 0002196 278.7595  81.3008 15.27595694 30905
STARLINK-35985          
1 66815U 25278AA  26171.24308050  .00013314  00000+0  49208-3 0  9996
2 66815  42.9981 255.1650 0001188 244.7808 115.2920 15.27606768 32100
STARLINK-36098          
1 66816U 25278AB  26171.21481556  .00012534  00000+0  46435-3 0  9999
2 66816  43.0031 254.9535 0002403 271.3713  88.6863 15.27571055 30893
STARLINK-35995          
1 66817U 25278AC  26171.30460227  .00009075  00000+0  33881-3 0  9999
2 66817  42.9986 254.7709 0001423 250.9646 109.1051 15.27586370 30907
STARLINK-35994          
1 66818U 25278AD  26171.30717176  .00010095  00000+0  37580-3 0  9992
2 66818  42.9969 254.7908 0001403 233.8487 126.2235 15.27585045 30903
STARLINK-35989          
1 66819U 25278AE  26171.25078012  .00011320  00000+0  42013-3 0  9995
2 66819  42.9981 255.2218 0001525 269.4278  90.6399 15.27589482 30898
KOMPSAT-7               
1 66820U 25279A   26171.34837301  .00001959  00000+0  16068-3 0  9990
2 66820  97.7082 119.8716 0009492   3.2265 356.9018 15.00368956 30099
STARLINK-35966          
1 66821U 25280A   26171.44967947  .00002161  00000+0  18878-3 0  9991
2 66821  70.0015  75.5573 0002718 262.9889  97.0961 14.98345370 31462
STARLINK-35958          
1 66822U 25280B   26171.14924382  .00007081  00000+0  60026-3 0  9993
2 66822  70.0028  76.1119 0002250 261.5200  98.5705 14.98355928 31421
STARLINK-35957          
1 66823U 25280C   26170.93227344  .00001186  00000+0  10715-3 0  9994
2 66823  70.0017  76.5571 0002837 266.2819  93.8015 14.98338736 31391
STARLINK-35896          
1 66824U 25280D   26171.43298645  .00004308  00000+0  36847-3 0  9996
2 66824  70.0013  75.4971 0002925 273.3224  86.7601 14.98343491 31461
STARLINK-35476          
1 66825U 25280E   26171.44133541  .00002429  00000+0  21125-3 0  9996
2 66825  70.0013  75.5251 0002749 270.2867  89.7977 14.98337357 31459
STARLINK-35898          
1 66826U 25280F   26170.92392577  .00002967  00000+0  25633-3 0  9990
2 66826  70.0017  76.5281 0002614 260.4023  99.6841 14.98337167 31396
STARLINK-35959          
1 66827U 25280G   26170.95731911  .00003687  00000+0  31656-3 0  9995
2 66827  70.0012  76.6454 0002896 269.7119  90.3708 14.98338968 31395
STARLINK-35982          
1 66828U 25280H   26171.43716961  .00004435  00000+0  37928-3 0  9998
2 66828  70.0011  75.5100 0002726 270.2636  89.8210 14.98324516 31467
STARLINK-36084          
1 66829U 25280J   26170.94064306  .00006311  00000+0  53631-3 0  9997
2 66829  70.0007  76.5855 0003280 264.8324  95.2461 14.98326136 31391
STARLINK-35881          
1 66830U 25280K   26171.44551087  .00003640  00000+0  31267-3 0  9995
2 66830  70.0012  75.5426 0002803 271.3909  88.6929 14.98337827 31466
STARLINK-35788          
1 66831U 25280L   26170.92809733  .00000320  00000+0  34552-4 0  9995
2 66831  70.0046  76.5468 0002211 262.3155  97.7753 14.98340845 31399
STARLINK-35768          
1 66832U 25280M   26170.96149352  .00002953  00000+0  25510-3 0  9991
2 66832  70.0012  76.6594 0002904 267.8674  92.2153 14.98338772 31399
STARLINK-35858          
1 66833U 25280N   26171.14507649  .00002123  00000+0  18559-3 0  9994
2 66833  70.0013  76.0959 0002615 264.8145  95.2716 14.98344420 31428
STARLINK-35840          
1 66834U 25280P   26171.45383024  .00002699  00000+0  23386-3 0  9990
2 66834  70.0015  75.1690 0002322 271.4222  88.6671 14.98337473 31479
