OBJECT_NAME,OBJECT_ID,EPOCH,MEAN_MOTION,ECCENTRICITY,INCLINATION,RA_OF_ASC_NODE,ARG_OF_PERICENTER,MEAN_ANOMALY,EPHEMERIS_TYPE,CLASSIFICATION_TYPE,NORAD_CAT_ID,ELEMENT_SET_NO,REV_AT_EPOCH,BSTAR,MEAN_MOTION_DOT,MEAN_MOTION_DDOT
STARLINK-36049,2025-278Q,2026-06-19T13:09:27.580896,15.27585565,.0002085,42.9972,259.4183,286.1112,73.9510,0,U,66805,999,3078,.41390459E-3,.11147E-3,0
STARLINK-36069,2025-278R,2026-06-20T00:00:02.000160,15.27588170,.00014757,43.0002,256.9190,269.3926,36.8631,0,U,66806,999,576,-.70495813E-3,-.19615E-3,0
STARLINK-36000,2025-278S,2026-06-20T05:38:54.871584,15.27598679,.0004264,42.9914,255.1101,133.1190,227.0019,0,U,66807,999,3089,.50271E-3,.13607E-3,0
STARLINK-36071,2025-278T,2026-06-19T16:34:12.666432,15.27594112,.00015476,43.0009,257.9020,274.4632,85.6043,0,U,66808,999,3081,.47279347E-3,.12776E-3,0
STARLINK-35979,2025-278U,2026-06-20T06:32:35.664000,15.27612450,.0001512,43.0006,255.3929,282.5051,77.5631,0,U,66809,999,3089,.82144E-3,.22433E-3,0
STARLINK-36046,2025-278V,2026-06-20T06:10:22.628640,15.27594978,.000149,42.9997,255.2770,276.4143,83.6539,0,U,66810,999,3089,.62451E-3,.1697E-3,0
STARLINK-36045,2025-278W,2026-06-20T05:59:16.456992,15.27583358,.0001546,42.9994,255.2168,238.0385,122.0316,0,U,66811,999,3089,.46235E-3,.12484E-3,0
STARLINK-36054,2025-278X,2026-06-20T05:55:34.491072,15.27580354,.0002412,43.0007,255.2001,283.3320,76.7263,0,U,66812,999,3089,.49398E-3,.13356E-3,0
STARLINK-36042,2025-278Y,2026-06-20T06:52:43.718304,15.27588393,.0001556,43.0020,254.6367,268.7729,91.2945,0,U,66813,999,3090,.48416E-3,.13088E-3,0
STARLINK-35984,2025-278Z,2026-06-20T06:56:25.365408,15.27595694,.0002196,42.9984,254.6513,278.7595,81.3008,0,U,66814,999,3090,.60745E-3,.16499E-3,0
STARLINK-35985,2025-278AA,2026-06-20T05:50:02.155200,15.27606768,.0001188,42.9981,255.1650,244.7808,115.2920,0,U,66815,999,3210,.49208E-3,.13314E-3,0
STARLINK-36098,2025-278AB,2026-06-20T05:09:20.064384,15.27571055,.00024034,43.0031,254.9535,271.3713,88.6863,0,U,66816,999,3089,.46435096E-3,.12534E-3,0
STARLINK-35995,2025-278AC,2026-06-20T07:18:37.636128,15.27586370,.0001423,42.9986,254.7709,250.9646,109.1051,0,U,66817,999,3090,.33881E-3,.9075E-4,0
STARLINK-35994,2025-278AD,2026-06-20T07:22:19.640064,15.27585045,.0001403,42.9969,254.7908,233.8487,126.2235,0,U,66818,999,3090,.3758E-3,.10095E-3,0
STARLINK-35989,2025-278AE,2026-06-20T06:01:07.402368,15.27589482,.0001525,42.9981,255.2218,269.4278,90.6399,0,U,66819,999,3089,.42013E-3,.1132E-3,0
KOMPSAT-7,2025-279A,2026-06-20T08:21:39.428064,15.00368956,.0009492,97.7082,119.8716,3.2265,356.9018,0,U,66820,999,3009,.16068E-3,.1959E-4,0
STARLINK-35966,2025-280A,2026-06-20T10:47:32.306208,14.98345370,.0002718,70.0015,75.5573,262.9889,97.0961,0,U,66821,999,3146,.18878E-3,.2161E-4,0
STARLINK-35958,2025-280B,2026-06-20T03:34:54.666048,14.98355928,.00022502,70.0028,76.1119,261.5200,98.5705,0,U,66822,999,3142,.60026098E-3,.7081E-4,0
STARLINK-35957,2025-280C,2026-06-19T22:22:28.425216,14.98338736,.0002837,70.0017,76.5571,266.2819,93.8015,0,U,66823,999,3139,.10715273E-3,.1186E-4,0
STARLINK-35896,2025-280D,2026-06-20T10:23:30.029280,14.98343491,.0002925,70.0013,75.4971,273.3224,86.7601,0,U,66824,999,3146,.36847E-3,.4308E-4,0
STARLINK-35476,2025-280E,2026-06-20T10:35:31.379424,14.98337357,.0002749,70.0013,75.5251,270.2867,89.7977,0,U,66825,999,3145,.21125E-3,.2429E-4,0
STARLINK-35898,2025-280F,2026-06-19T22:10:27.186528,14.98337167,.00026141,70.0017,76.5281,260.4023,99.6841,0,U,66826,999,3139,.25633466E-3,.2967E-4,0
STARLINK-35959,2025-280G,2026-06-19T22:58:32.371104,14.98338968,.00028961,70.0012,76.6454,269.7119,90.3708,0,U,66827,999,3139,.31656011E-3,.3687E-4,0
STARLINK-35982,2025-280H,2026-06-20T10:29:31.454304,14.98324516,.0002726,70.0011,75.5100,270.2636,89.8210,0,U,66828,999,3146,.37928E-3,.4435E-4,0
STARLINK-36084,2025-280J,2026-06-19T22:34:31.560384,14.98326136,.00032801,70.0007,76.5855,264.8324,95.2461,0,U,66829,999,3139,.53631261E-3,.6311E-4,0
STARLINK-35881,2025-280K,2026-06-20T10:41:32.139168,14.98337827,.0002803,70.0012,75.5426,271.3909,88.6929,0,U,66830,999,3146,.31267E-3,.364E-4,0
STARLINK-35788,2025-280L,2026-06-19T22:16:27.609312,14.98340845,.00022115,70.0046,76.5468,262.3155,97.7753,0,U,66831,999,3139,.34551772E-4,.32E-5,0
STARLINK-35768,2025-280M,2026-06-19T23:04:33.040128,14.98338772,.00029044,70.0012,76.6594,267.8674,92.2153,0,U,66832,999,3139,.25510383E-3,.2953E-4,0
STARLINK-35858,2025-280N,2026-06-20T03:28:54.608736,14.98344420,.00026151,70.0013,76.0959,264.8145,95.2716,0,U,66833,999,3142,.18559091E-3,.2123E-4,0
STARLINK-35840,2025-280P,2026-06-20T10:53:30.932736,14.98337473,.0002322,70.0015,75.1690,271.4222,88.6671,0,U,66834,999,3147,.23386E-3,.2699E-4,0
